IRIDIUM 106             
1 41917U 17003A   24309.48173827  .00000203  00000+0  65530-4 0  9998
2 41917  86.3966 334.9743 0002422  85.2551 274.8921 14.34218916408689
IRIDIUM 103             
1 41918U 17003B   24308.84113694  .00000217  00000+0  70413-4 0  9995
2 41918  86.3962 335.1441 0002747  99.6820 260.4686 14.34219123408626
IRIDIUM 109             
1 41919U 17003C   24309.47539541  .00000681  00000+0  23625-3 0  9996
2 41919  86.3965 334.9284 0002242 102.0956 258.0491 14.34219037408699
IRIDIUM 102             
1 41920U 17003D   24308.81576593  .00000754  00000+0  26231-3 0  9990
2 41920  86.3963 335.1404 0002035  91.1855 268.9574 14.34220427408666
IRIDIUM 105             
1 41921U 17003E   24309.27487676  .00000086  00000+0  23617-4 0  9999
2 41921  86.3927 303.3711 0002389  89.1221 271.0249 14.34217013410586
IRIDIUM 104             
1 41922U 17003F   24308.82845184  .00000465  00000+0  15908-3 0  9996
2 41922  86.3966 335.1690 0002263 111.3330 248.8108 14.34217978408650
IRIDIUM 114             
1 41923U 17003G   24308.83479308  .00000979  00000+0  34228-3 0  9995
2 41923  86.3965 335.1512 0002445  93.5870 266.5605 14.34221448408639
IRIDIUM 108             
1 41924U 17003H   24309.49099016  .00000046  00000+0  93963-5 0  9991
2 41924  86.3920 303.1966 0002326  83.5421 276.6039 14.34217160410607
